CCSDS_OMM_VERS = 2.0
CREATION_DATE  = 
ORIGINATOR     = 

OBJECT_NAME    = COSMOS 1743
OBJECT_ID      = 1986-034A
CENTER_NAME    = EARTH
REF_FRAME      = TEME
TIME_SYSTEM    = UTC
MEAN_ELEMENT_THEORY = SGP/SGP4

EPOCH          = 2025-10-31T06:12:08.898048
MEAN_MOTION    = 15.49236518
ECCENTRICITY   = .00090165
INCLINATION    = 82.5387
RA_OF_ASC_NODE = 208.6095
ARG_OF_PERICENTER = 54.6813
MEAN_ANOMALY   = 305.5279

EPHEMERIS_TYPE = 0
CLASSIFICATION_TYPE = U
NORAD_CAT_ID   = 16719
ELEMENT_SET_NO = 999
REV_AT_EPOCH   = 16015
BSTAR          = .65749016E-3
MEAN_MOTION_DOT = .36057E-3
MEAN_MOTION_DDOT = 0

CCSDS_OMM_VERS = 2.0
CREATION_DATE  = 
ORIGINATOR     = 

OBJECT_NAME    = SL-14 R/B
OBJECT_ID      = 1986-046B
CENTER_NAME    = EARTH
REF_FRAME      = TEME
TIME_SYSTEM    = UTC
MEAN_ELEMENT_THEORY = SGP/SGP4

EPOCH          = 2025-10-31T03:24:48.721248
MEAN_MOTION    = 14.85420824
ECCENTRICITY   = .00218315
INCLINATION    = 82.4844
RA_OF_ASC_NODE = 202.5359
ARG_OF_PERICENTER = 298.4124
MEAN_ANOMALY   = 61.4892

EPHEMERIS_TYPE = 0
CLASSIFICATION_TYPE = U
NORAD_CAT_ID   = 16792
ELEMENT_SET_NO = 999
REV_AT_EPOCH   = 10717
BSTAR          = .78389456E-4
MEAN_MOTION_DOT = .702E-5
MEAN_MOTION_DDOT = 0

CCSDS_OMM_VERS = 2.0
CREATION_DATE  = 
ORIGINATOR     = 

OBJECT_NAME    = SL-14 R/B
OBJECT_ID      = 1986-055B
CENTER_NAME    = EARTH
REF_FRAME      = TEME
TIME_SYSTEM    = UTC
MEAN_ELEMENT_THEORY = SGP/SGP4

EPOCH          = 2025-10-31T06:51:46.082592
MEAN_MOTION    = 14.85458195
ECCENTRICITY   = .00201875
INCLINATION    = 82.5201
RA_OF_ASC_NODE = 248.2588
ARG_OF_PERICENTER = 43.8697
MEAN_ANOMALY   = 67.9874

EPHEMERIS_TYPE = 0
CLASSIFICATION_TYPE = U
NORAD_CAT_ID   = 16882
ELEMENT_SET_NO = 999
REV_AT_EPOCH   = 10015
BSTAR          = .96094023E-4
MEAN_MOTION_DOT = .855E-5
MEAN_MOTION_DDOT = 0

CCSDS_OMM_VERS = 2.0
CREATION_DATE  = 
ORIGINATOR     = 

OBJECT_NAME    = AJISAI (EGS)
OBJECT_ID      = 1986-061A
CENTER_NAME    = EARTH
REF_FRAME      = TEME
TIME_SYSTEM    = UTC
MEAN_ELEMENT_THEORY = SGP/SGP4

EPOCH          = 2025-10-31T06:47:00.548736
MEAN_MOTION    = 12.44514061
ECCENTRICITY   = .00111432
INCLINATION    = 50.0063
RA_OF_ASC_NODE = 131.2706
ARG_OF_PERICENTER = 318.6474
MEAN_ANOMALY   = 209.4212

EPHEMERIS_TYPE = 0
CLASSIFICATION_TYPE = U
NORAD_CAT_ID   = 16908
ELEMENT_SET_NO = 999
REV_AT_EPOCH   = 45188
BSTAR          = .816074E-4
MEAN_MOTION_DOT = -.86E-6
MEAN_MOTION_DDOT = 0

CCSDS_OMM_VERS = 2.0
CREATION_DATE  = 
ORIGINATOR     = 

OBJECT_NAME    = COSMOS 1812
OBJECT_ID      = 1987-003A
CENTER_NAME    = EARTH
REF_FRAME      = TEME
TIME_SYSTEM    = UTC
MEAN_ELEMENT_THEORY = SGP/SGP4

EPOCH          = 2025-10-31T04:24:00.441216
MEAN_MOTION    = 15.67336888
ECCENTRICITY   = .00033269
INCLINATION    = 82.4913
RA_OF_ASC_NODE = 337.7833
ARG_OF_PERICENTER = 175.4631
MEAN_ANOMALY   = 184.6661

EPHEMERIS_TYPE = 0
CLASSIFICATION_TYPE = U
NORAD_CAT_ID   = 17295
ELEMENT_SET_NO = 999
REV_AT_EPOCH   = 12397
BSTAR          = .67546204E-3
MEAN_MOTION_DOT = .7323E-3
MEAN_MOTION_DDOT = 0

CCSDS_OMM_VERS = 2.0
CREATION_DATE  = 
ORIGINATOR     = 

OBJECT_NAME    = SL-14 R/B
OBJECT_ID      = 1987-024B
CENTER_NAME    = EARTH
REF_FRAME      = TEME
TIME_SYSTEM    = UTC
MEAN_ELEMENT_THEORY = SGP/SGP4

EPOCH          = 2025-10-31T05:20:36.399264
MEAN_MOTION    = 14.85959079
ECCENTRICITY   = .0017663
INCLINATION    = 82.5305
RA_OF_ASC_NODE = 214.3863
ARG_OF_PERICENTER = 334.3903
MEAN_ANOMALY   = 25.6436

EPHEMERIS_TYPE = 0
CLASSIFICATION_TYPE = U
NORAD_CAT_ID   = 17567
ELEMENT_SET_NO = 999
REV_AT_EPOCH   = 6890
BSTAR          = .84241946E-4
MEAN_MOTION_DOT = .761E-5
MEAN_MOTION_DDOT = 0

CCSDS_OMM_VERS = 2.0
CREATION_DATE  = 
ORIGINATOR     = 

OBJECT_NAME    = COSMOS 1833
OBJECT_ID      = 1987-027A
CENTER_NAME    = EARTH
REF_FRAME      = TEME
TIME_SYSTEM    = UTC
MEAN_ELEMENT_THEORY = SGP/SGP4

EPOCH          = 2025-10-31T05:50:00.240576
MEAN_MOTION    = 14.13025236
ECCENTRICITY   = .00205616
INCLINATION    = 70.9164
RA_OF_ASC_NODE = 238.1089
ARG_OF_PERICENTER = 32.1237
MEAN_ANOMALY   = 328.1132

EPHEMERIS_TYPE = 0
CLASSIFICATION_TYPE = U
NORAD_CAT_ID   = 17589
ELEMENT_SET_NO = 999
REV_AT_EPOCH   = 99202
BSTAR          = -.14057471E-3
MEAN_MOTION_DOT = -.311E-5
MEAN_MOTION_DDOT = 0

CCSDS_OMM_VERS = 2.0
CREATION_DATE  = 
ORIGINATOR     = 

OBJECT_NAME    = SL-16 R/B
OBJECT_ID      = 1987-027B
CENTER_NAME    = EARTH
REF_FRAME      = TEME
TIME_SYSTEM    = UTC
MEAN_ELEMENT_THEORY = SGP/SGP4

EPOCH          = 2025-10-31T02:21:35.264448
MEAN_MOTION    = 14.17142122
ECCENTRICITY   = .00067987
INCLINATION    = 71.0023
RA_OF_ASC_NODE = 189.5697
ARG_OF_PERICENTER = 304.5893
MEAN_ANOMALY   = 55.4589

EPHEMERIS_TYPE = 0
CLASSIFICATION_TYPE = U
NORAD_CAT_ID   = 17590
ELEMENT_SET_NO = 999
REV_AT_EPOCH   = 99702
BSTAR          = .24517728E-4
MEAN_MOTION_DOT = .1E-7
MEAN_MOTION_DDOT = 0

CCSDS_OMM_VERS = 2.0
CREATION_DATE  = 
ORIGINATOR     = 

OBJECT_NAME    = SL-14 R/B
OBJECT_ID      = 1987-038B
CENTER_NAME    = EARTH
REF_FRAME      = TEME
TIME_SYSTEM    = UTC
MEAN_ELEMENT_THEORY = SGP/SGP4

EPOCH          = 2025-10-31T06:51:34.466112
MEAN_MOTION    = 14.85193771
ECCENTRICITY   = .00182033
INCLINATION    = 82.5023
RA_OF_ASC_NODE = 58.6768
ARG_OF_PERICENTER = 229.5250
MEAN_ANOMALY   = 130.4380

EPHEMERIS_TYPE = 0
CLASSIFICATION_TYPE = U
NORAD_CAT_ID   = 17912
ELEMENT_SET_NO = 999
REV_AT_EPOCH   = 6002
BSTAR          = .93048255E-4
MEAN_MOTION_DOT = .823E-5
MEAN_MOTION_DDOT = 0

CCSDS_OMM_VERS = 2.0
CREATION_DATE  = 
ORIGINATOR     = 

OBJECT_NAME    = COSMOS 1844
OBJECT_ID      = 1987-041A
CENTER_NAME    = EARTH
REF_FRAME      = TEME
TIME_SYSTEM    = UTC
MEAN_ELEMENT_THEORY = SGP/SGP4

EPOCH          = 2025-10-31T06:34:10.021440
MEAN_MOTION    = 14.14508909
ECCENTRICITY   = .00324354
INCLINATION    = 70.8975
RA_OF_ASC_NODE = 307.1400
ARG_OF_PERICENTER = 219.8667
MEAN_ANOMALY   = 140.0073

EPHEMERIS_TYPE = 0
CLASSIFICATION_TYPE = U
NORAD_CAT_ID   = 17973
ELEMENT_SET_NO = 999
REV_AT_EPOCH   = 98528
BSTAR          = .19564069E-3
MEAN_MOTION_DOT = .329E-5
MEAN_MOTION_DDOT = 0

CCSDS_OMM_VERS = 2.0
CREATION_DATE  = 
ORIGINATOR     = 

OBJECT_NAME    = SL-14 R/B
OBJECT_ID      = 1987-055B
CENTER_NAME    = EARTH
REF_FRAME      = TEME
TIME_SYSTEM    = UTC
MEAN_ELEMENT_THEORY = SGP/SGP4

EPOCH          = 2025-10-31T05:13:39.883008
MEAN_MOTION    = 14.85451410
ECCENTRICITY   = .00222155
INCLINATION    = 82.4961
RA_OF_ASC_NODE = 111.0619
ARG_OF_PERICENTER = 82.2420
MEAN_ANOMALY   = 278.1317

EPHEMERIS_TYPE = 0
CLASSIFICATION_TYPE = U
NORAD_CAT_ID   = 18153
ELEMENT_SET_NO = 999
REV_AT_EPOCH   = 5071
BSTAR          = .84639909E-4
MEAN_MOTION_DOT = .757E-5
MEAN_MOTION_DDOT = 0

CCSDS_OMM_VERS = 2.0
CREATION_DATE  = 
ORIGINATOR     = 

OBJECT_NAME    = COSMOS 1867
OBJECT_ID      = 1987-060A
CENTER_NAME    = EARTH
REF_FRAME      = TEME
TIME_SYSTEM    = UTC
MEAN_ELEMENT_THEORY = SGP/SGP4

EPOCH          = 2025-10-31T06:23:12.104448
MEAN_MOTION    = 14.31475275
ECCENTRICITY   = .0013769
INCLINATION    = 65.0103
RA_OF_ASC_NODE = 309.1456
ARG_OF_PERICENTER = 266.8823
MEAN_ANOMALY   = 93.0686

EPHEMERIS_TYPE = 0
CLASSIFICATION_TYPE = U
NORAD_CAT_ID   = 18187
ELEMENT_SET_NO = 999
REV_AT_EPOCH   = 141
BSTAR          = .3864627E-4
MEAN_MOTION_DOT = .3E-7
MEAN_MOTION_DDOT = 0

