COSMOS 1743             
1 16719U 86034A   25304.25843632  .00036057  00000+0  65749-3 0  9996
2 16719  82.5387 208.6095 0009016  54.6813 305.5279 15.49236518160150
SL-14 R/B               
1 16792U 86046B   25304.14223057  .00000702  00000+0  78389-4 0  9994
2 16792  82.4844 202.5359 0021831 298.4124  61.4892 14.85420824107172
SL-14 R/B               
1 16882U 86055B   25304.28595003  .00000855  00000+0  96094-4 0  9994
2 16882  82.5201 248.2588 0020187  43.8697  67.9874 14.85458195100155
AJISAI (EGS)            
1 16908U 86061A   25304.28264524 -.00000086  00000+0  81607-4 0  9992
2 16908  50.0063 131.2706 0011143 318.6474 209.4212 12.44514061451887
COSMOS 1812             
1 17295U 87003A   25304.18333844  .00073230  00000+0  67546-3 0  9995
2 17295  82.4913 337.7833 0003326 175.4631 184.6661 15.67336888123977
SL-14 R/B               
1 17567U 87024B   25304.22264351  .00000761  00000+0  84242-4 0  9993
2 17567  82.5305 214.3863 0017663 334.3903  25.6436 14.85959079 68902
COSMOS 1833             
1 17589U 87027A   25304.24305834 -.00000311  00000+0 -14057-3 0  9993
2 17589  70.9164 238.1089 0020561  32.1237 328.1132 14.13025236992021
SL-16 R/B               
1 17590U 87027B   25304.09832482  .00000001  00000+0  24518-4 0  9990
2 17590  71.0023 189.5697 0006798 304.5893  55.4589 14.17142122997022
SL-14 R/B               
1 17912U 87038B   25304.28581558  .00000823  00000+0  93048-4 0  9992
2 17912  82.5023  58.6768 0018203 229.5250 130.4380 14.85193771 60024
COSMOS 1844             
1 17973U 87041A   25304.27372710  .00000329  00000+0  19564-3 0  9991
2 17973  70.8975 307.1400 0032435 219.8667 140.0073 14.14508909985284
SL-14 R/B               
1 18153U 87055B   25304.21782272  .00000757  00000+0  84640-4 0  9992
2 18153  82.4961 111.0619 0022215  82.2420 278.1317 14.85451410 50714
COSMOS 1867             
1 18187U 87060A   25304.26611232  .00000003  00000+0  38646-4 0  9996
2 18187  65.0103 309.1456 0013769 266.8823  93.0686 14.31475275  1418
